{
  "type": "FeatureCollection",
  "features": [
    {
      "type": "Feature",
      "properties": {
        "norad_id": 59600,
        "name": "GSAT0227 (GALILEO 30)",
        "group": "galileo",
        "lat": 29.809194016088572,
        "lon": 129.74558341737563,
        "alt_km": 23216.7959057815,
        "timestamp": "2025-12-18T23:35:49.323143+00:00",
        "meta_object_name": "GSAT0227 (GALILEO 30)",
        "meta_object_id": "2024-079C",
        "meta_epoch": "2025-12-17T17:58:49.575360",
        "meta_mean_motion": 1.704749,
        "meta_eccentricity": 0.00029705,
        "meta_inclination": 54.9996,
        "meta_ra_of_asc_node": 106.1542,
        "meta_arg_of_pericenter": 116.5176,
        "meta_mean_anomaly": 243.4717,
        "meta_ephemeris_type": 0,
        "meta_classification_type": "U",
        "meta_norad_cat_id": 59600,
        "meta_element_set_no": 999,
        "meta_rev_at_epoch": 1027,
        "meta_bstar": 0,
        "meta_mean_motion_dot": -9e-08,
        "meta_mean_motion_ddot": 0,
        "tle_line1": "1 59600U 24079C   25351.74918490 -.00000009  00000+0  00000+0 0  9998",
        "tle_line2": "2 59600  54.9996 106.1542 0002970 116.5176 243.4717  1.70474900 10278"
      },
      "geometry": {
        "type": "Point",
        "coordinates": [
          129.74558341737563,
          29.809194016088572
        ]
      }
    },
    {
      "type": "Feature",
      "properties": {
        "norad_id": 61182,
        "name": "GSAT0232 (GALILEO 32)",
        "group": "galileo",
        "lat": -40.20760303295231,
        "lon": 82.18877434673848,
        "alt_km": 23221.80117629498,
        "timestamp": "2025-12-18T23:35:49.323155+00:00",
        "meta_object_name": "GSAT0232 (GALILEO 32)",
        "meta_object_id": "2024-167A",
        "meta_epoch": "2025-12-18T07:28:16.745952",
        "meta_mean_motion": 1.70473695,
        "meta_eccentricity": 0.00018931,
        "meta_inclination": 55.2391,
        "meta_ra_of_asc_node": 226.278,
        "meta_arg_of_pericenter": 209.6785,
        "meta_mean_anomaly": 329.812,
        "meta_ephemeris_type": 0,
        "meta_classification_type": "U",
        "meta_norad_cat_id": 61182,
        "meta_element_set_no": 999,
        "meta_rev_at_epoch": 779,
        "meta_bstar": 0,
        "meta_mean_motion_dot": 6.2e-07,
        "meta_mean_motion_ddot": 0,
        "tle_line1": "1 61182U 24167A   25352.31130493  .00000062  00000+0  00000+0 0  9995",
        "tle_line2": "2 61182  55.2391 226.2780 0001893 209.6785 329.8120  1.70473695  7790"
      },
      "geometry": {
        "type": "Point",
        "coordinates": [
          82.18877434673848,
          -40.20760303295231
        ]
      }
    },
    {
      "type": "Feature",
      "properties": {
        "norad_id": 61183,
        "name": "GSAT0226 (GALILEO 31)",
        "group": "galileo",
        "lat": -12.766911159552516,
        "lon": -142.76950791394913,
        "alt_km": 23225.74203126834,
        "timestamp": "2025-12-18T23:35:49.323166+00:00",
        "meta_object_name": "GSAT0226 (GALILEO 31)",
        "meta_object_id": "2024-167B",
        "meta_epoch": "2025-12-18T14:21:31.891392",
        "meta_mean_motion": 1.70473759,
        "meta_eccentricity": 0.00010399,
        "meta_inclination": 55.2376,
        "meta_ra_of_asc_node": 226.2756,
        "meta_arg_of_pericenter": 106.8456,
        "meta_mean_anomaly": 1.4308,
        "meta_ephemeris_type": 0,
        "meta_classification_type": "U",
        "meta_norad_cat_id": 61183,
        "meta_element_set_no": 999,
        "meta_rev_at_epoch": 777,
        "meta_bstar": 0,
        "meta_mean_motion_dot": 6.4e-07,
        "meta_mean_motion_ddot": 0,
        "tle_line1": "1 61183U 24167B   25352.59828578  .00000064  00000+0  00000+0 0  9996",
        "tle_line2": "2 61183  55.2376 226.2756 0001039 106.8456   1.4308  1.70473759  7772"
      },
      "geometry": {
        "type": "Point",
        "coordinates": [
          -142.76950791394913,
          -12.766911159552516
        ]
      }
    },
    {
      "type": "Feature",
      "properties": {
        "norad_id": 67160,
        "name": "GALILEO A",
        "group": "galileo",
        "lat": 15.343637042501964,
        "lon": -84.17993525114703,
        "alt_km": 22937.173657073807,
        "timestamp": "2025-12-18T23:35:49.323178+00:00",
        "meta_object_name": "GALILEO A",
        "meta_object_id": "2025-302A",
        "meta_epoch": "2025-12-18T03:30:19.807776",
        "meta_mean_motion": 1.72901431,
        "meta_eccentricity": 0.00080329,
        "meta_inclination": 54.2385,
        "meta_ra_of_asc_node": 107.247,
        "meta_arg_of_pericenter": 237.4965,
        "meta_mean_anomaly": 122.3848,
        "meta_ephemeris_type": 0,
        "meta_classification_type": "U",
        "meta_norad_cat_id": 67160,
        "meta_element_set_no": 999,
        "meta_rev_at_epoch": 2,
        "meta_bstar": 0,
        "meta_mean_motion_dot": -7e-08,
        "meta_mean_motion_ddot": 0,
        "tle_line1": "1 67160U 25302A   25352.14606259 -.00000007  00000+0  00000+0 0  9998",
        "tle_line2": "2 67160  54.2385 107.2470 0008032 237.4965 122.3848  1.72901431    27"
      },
      "geometry": {
        "type": "Point",
        "coordinates": [
          -84.17993525114703,
          15.343637042501964
        ]
      }
    },
    {
      "type": "Feature",
      "properties": {
        "norad_id": 67161,
        "name": "GALILEO B",
        "group": "galileo",
        "lat": 15.000641217420092,
        "lon": -83.93744027759719,
        "alt_km": 22935.149987336103,
        "timestamp": "2025-12-18T23:35:49.323190+00:00",
        "meta_object_name": "GALILEO B",
        "meta_object_id": "2025-302B",
        "meta_epoch": "2025-12-18T03:29:55.932000",
        "meta_mean_motion": 1.72967481,
        "meta_eccentricity": 0.0004929,
        "meta_inclination": 54.2283,
        "meta_ra_of_asc_node": 107.2235,
        "meta_arg_of_pericenter": 250.9394,
        "meta_mean_anomaly": 108.9662,
        "meta_ephemeris_type": 0,
        "meta_classification_type": "U",
        "meta_norad_cat_id": 67161,
        "meta_element_set_no": 999,
        "meta_rev_at_epoch": 3,
        "meta_bstar": 0,
        "meta_mean_motion_dot": -7e-08,
        "meta_mean_motion_ddot": 0,
        "tle_line1": "1 67161U 25302B   25352.14578625 -.00000007  00000+0  00000+0 0  9994",
        "tle_line2": "2 67161  54.2283 107.2235 0004929 250.9394 108.9662  1.72967481    33"
      },
      "geometry": {
        "type": "Point",
        "coordinates": [
          -83.93744027759719,
          15.000641217420092
        ]
      }
    }
  ]
}